{
  "fetched_at": "2026-07-05T01:56:34.759915+00:00",
  "satellites": {
    "57166": {
      "name": "Meteor M2-3",
      "tle_line1": "1 57166U 23091A   26185.59377465  .00000020  00000+0  27562-4 0  9995",
      "tle_line2": "2 57166  98.6079 240.2152 0005057 114.0893 246.0816 14.24048368156992"
    },
    "59051": {
      "name": "Meteor M2-4",
      "tle_line1": "1 59051U 24039A   26185.62824690  .00000033  00000+0  34366-4 0  9998",
      "tle_line2": "2 59051  98.7019 144.7077 0008092 115.0884 245.1134 14.22431382121747"
    },
    "38771": {
      "name": "MetOp-B",
      "tle_line1": "1 38771U 12049A   26185.57618465  .00000154  00000+0  90357-4 0  9993",
      "tle_line2": "2 38771  98.6495 236.7278 0001221 318.5789  41.5296 14.21444462715733"
    },
    "43689": {
      "name": "MetOp-C",
      "tle_line1": "1 43689U 18087A   26185.59448250  .00000144  00000+0  85661-4 0  9991",
      "tle_line2": "2 43689  98.6635 244.8793 0002181 107.2589 252.8828 14.21517124397305"
    },
    "60543": {
      "name": "Arctic Weather Satellite",
      "tle_line1": "1 60543U 24149CD  26185.48218101  .00001226  00000+0  13338-3 0  9996",
      "tle_line2": "2 60543  97.6796 255.4530 0003459  71.0917 289.0675 14.89813514101872"
    }
  }
}